STARLINK - 2019-029AG              
1 44265U 19029AG  19146.90714042  .00001181  00000-0  40361-4 0  9999
2 44265  53.0140 162.0178 0003460 110.6708 352.2812 15.38936143   542